NORAD_CAT_ID,OBJECT_NAME,OBJECT_TYPE,EPOCH,MEAN_MOTION,ECCENTRICITY,INCLINATION,RA_OF_ASC_NODE,ARG_OF_PERICENTER,MEAN_ANOMALY,BSTAR,MEAN_MOTION_DOT,MEAN_MOTION_DDOT,TLE_LINE0,TLE_LINE1,TLE_LINE2,SEMIMAJOR_AXIS,PERIOD,APOGEE,PERIGEE,DECAYED
53285.0,STARLINK-4173,PAYLOAD,2023-12-18 19:41:49,15.0883999,0.0001664,53.2163,228.7422,106.2763,253.8412,-0.00010077,-1.891e-05,0.0,0 STARLINK-4173,1 53285U 22086AV  23352.82070983 -.00001891  00000-0 -10077-3 0  9992,2 53285  53.2163 228.7422 0001664 106.2763 253.8412 15.08839990 78466,6917.88,95.438,540.897,538.594,0.0
53285.0,STARLINK-4173,PAYLOAD,2023-12-18 21:17:12,15.08839854,0.0001672,53.2164,228.4457,107.3388,252.7787,-0.00010136,-1.901e-05,0.0,0 STARLINK-4173,1 53285U 22086AV  23352.88695006 -.00001901  00000-0 -10136-3 0  9995,2 53285  53.2164 228.4457 0001672 107.3388 252.7787 15.08839854 78637,6917.881,95.438,540.903,538.589,0.0
53285.0,STARLINK-4173,PAYLOAD,2023-12-19 21:07:59,15.08839956,0.0001523,53.2161,223.9862,93.7319,266.3848,7.1859e-05,8.56e-06,0.0,0 STARLINK-4173,1 53285U 22086AV  23353.88054755  .00000856  00000-0  71859-4 0  9992,2 53285  53.2161 223.9862 0001523  93.7319 266.3848 15.08839956 78622,6917.881,95.438,540.799,538.692,0.0
53285.0,STARLINK-4173,PAYLOAD,2023-12-20 22:34:09,15.08838224,0.000129,53.2153,219.2286,96.0747,264.0392,6.9102e-05,8.12e-06,0.0,0 STARLINK-4173,1 53285U 22086AV  23354.94039150  .00000812  00000-0  69102-4 0  9992,2 53285  53.2153 219.2286 0001290  96.0747 264.0392 15.08838224 78944,6917.886,95.438,540.643,538.858,0.0
53285.0,STARLINK-4173,PAYLOAD,2023-12-21 22:24:57,15.08844598,0.0001523,53.2162,214.7704,102.4493,257.6669,-7.7217e-05,-1.517e-05,0.0,0 STARLINK-4173,1 53285U 22086AV  23355.93399550 -.00001517  00000-0 -77217-4 0  9996,2 53285  53.2162 214.7704 0001523 102.4493 257.6669 15.08844598 79091,6917.866,95.437,540.785,538.678,0.0
53285.0,STARLINK-4173,PAYLOAD,2023-12-22 19:04:58,15.08840344,0.0001354,53.2161,210.9038,85.5458,274.5688,4.5897e-05,4.43e-06,0.0,0 STARLINK-4173,1 53285U 22086AV  23356.79511645  .00000443  00000-0  45897-4 0  9996,2 53285  53.2161 210.9038 0001354  85.5458 274.5688 15.08840344 79063,6917.879,95.438,540.681,538.808,0.0
53285.0,STARLINK-4173,PAYLOAD,2023-12-22 20:40:21,15.08812698,0.0001305,53.2162,210.6048,80.8339,279.2801,0.00045128,6.896e-05,0.0,0 STARLINK-4173,1 53285U 22086AV  23356.86136004  .00006896  00000-0  45128-3 0  9990,2 53285  53.2162 210.6048 0001305  80.8339 279.2801 15.08812698 79233,6917.964,95.439,540.732,538.926,0.0
53285.0,STARLINK-4173,PAYLOAD,2023-12-23 14:09:35,15.08841189,0.0001406,53.2153,207.3352,86.818,273.2973,9.3851e-05,1.206e-05,0.0,0 STARLINK-4173,1 53285U 22086AV  23357.58999558  .00001206  00000-0  93851-4 0  9998,2 53285  53.2153 207.3352 0001406  86.8180 273.2973 15.08841189 79349,6917.877,95.437,540.714,538.769,0.0
53285.0,STARLINK-4173,PAYLOAD,2023-12-23 18:55:44,15.08841779,0.0001393,53.2153,206.4431,87.8277,272.2875,9.36e-05,1.202e-05,0.0,0 STARLINK-4173,1 53285U 22086AV  23357.78871505  .00001202  00000-0  93600-4 0  9999,2 53285  53.2153 206.4431 0001393  87.8277 272.2875 15.08841779 79211,6917.875,95.437,540.704,538.776,0.0
53285.0,STARLINK-4173,PAYLOAD,2023-12-23 20:31:08,15.08842026,0.000141,53.2154,206.1459,85.9795,274.1359,9.4969e-05,1.224e-05,0.0,0 STARLINK-4173,1 53285U 22086AV  23357.85495512  .00001224  00000-0  94969-4 0  9990,2 53285  53.2154 206.1459 0001410  85.9795 274.1359 15.08842026 79385,6917.874,95.437,540.715,538.764,0.0
53285.0,STARLINK-4173,PAYLOAD,2023-12-24 14:00:22,15.08842387,0.0001434,53.2153,202.8755,83.7028,276.4127,5.3991e-05,5.71e-06,0.0,0 STARLINK-4173,1 53285U 22086AV  23358.58359594  .00000571  00000-0  53991-4 0  9994,2 53285  53.2153 202.8755 0001434  83.7028 276.4127 15.08842387 79497,6917.873,95.437,540.73,538.746,0.0
53285.0,STARLINK-4173,PAYLOAD,2023-12-24 20:21:55,15.08842482,0.0001379,53.2153,201.6858,88.6013,271.5137,4.6359e-05,4.5e-06,0.0,0 STARLINK-4173,1 53285U 22086AV  23358.84855505  .00000450  00000-0  46359-4 0  9992,2 53285  53.2153 201.6858 0001379  88.6013 271.5137 15.08842482 79374,6917.873,95.437,540.692,538.784,0.0
53285.0,STARLINK-4173,PAYLOAD,2023-12-24 23:32:41,15.08845001,0.0001305,53.2144,201.0896,83.3763,276.7378,7.2112e-05,8.6e-06,0.0,0 STARLINK-4173,1 53285U 22086AV  23358.98103248  .00000860  00000-0  72112-4 0  9998,2 53285  53.2144 201.0896 0001305  83.3763 276.7378 15.08845001 79557,6917.865,95.437,540.633,538.827,0.0
53285.0,STARLINK-4173,PAYLOAD,2023-12-25 18:37:19,15.08839179,0.0001358,53.215,197.5205,87.9953,272.1194,9.438e-06,-1.38e-06,0.0,0 STARLINK-4173,1 53285U 22086AV  23359.77591744 -.00000138  00000-0  94380-5 0  9999,2 53285  53.2150 197.5205 0001358  87.9953 272.1194 15.08839179 79674,6917.883,95.438,540.687,538.808,0.0
53285.0,STARLINK-4173,PAYLOAD,2023-12-25 23:23:28,15.08833266,0.0001359,53.2153,196.6272,95.4597,264.655,0.00013393,1.844e-05,0.0,0 STARLINK-4173,1 53285U 22086AV  23359.97463764  .00001844  00000-0  13393-3 0  9998,2 53285  53.2153 196.6272 0001359  95.4597 264.6550 15.08833266 79549,6917.901,95.438,540.706,538.826,0.0
53285.0,STARLINK-4173,PAYLOAD,2023-12-26 20:03:29,15.08841286,0.0001365,53.2157,192.7604,99.7777,260.3369,2.2122e-05,6.4e-07,0.0,0 STARLINK-4173,1 53285U 22086AV  23360.83575544  .00000064  00000-0  22122-4 0  9999,2 53285  53.2157 192.7604 0001365  99.7777 260.3369 15.08841286 79837,6917.876,95.437,540.686,538.797,0.0
53285.0,STARLINK-4173,PAYLOAD,2023-12-27 11:57:21,15.08834927,0.0001378,53.2157,189.7867,98.3631,261.7517,3.6545e-05,2.94e-06,0.0,0 STARLINK-4173,1 53285U 22086AV  23361.49816037  .00000294  00000-0  36545-4 0  9996,2 53285  53.2157 189.7867 0001378  98.3631 261.7517 15.08834927 79779,6917.896,95.438,540.714,538.808,0.0
53285.0,STARLINK-4173,PAYLOAD,2023-12-27 18:18:53,15.08837019,0.000135,53.2156,188.5976,98.7123,261.4023,2.8263e-05,1.62e-06,0.0,0 STARLINK-4173,1 53285U 22086AV  23361.76311991  .00000162  00000-0  28263-4 0  9997,2 53285  53.2156 188.5976 0001350  98.7123 261.4023 15.08837019 79972,6917.89,95.438,540.688,538.821,0.0
53285.0,STARLINK-4173,PAYLOAD,2023-12-28 11:48:08,15.08837163,0.0001339,53.2155,185.3267,99.6624,260.452,4.8906e-05,4.9e-06,0.0,0 STARLINK-4173,1 53285U 22086AV  23362.49176018  .00000490  00000-0  48906-4 0  9997,2 53285  53.2155 185.3267 0001339  99.6624 260.4520 15.08837163 80087,6917.889,95.438,540.68,538.828,0.0
53285.0,STARLINK-4173,PAYLOAD,2023-12-28 19:45:03,15.08841723,0.0001298,53.2155,183.8405,94.6094,265.5046,5.7011e-05,6.2e-06,0.0,0 STARLINK-4173,1 53285U 22086AV  23362.82295725  .00000620  00000-0  57011-4 0  9993,2 53285  53.2155 183.8405 0001298  94.6094 265.5046 15.08841723 79976,6917.875,95.437,540.638,538.842,0.0
53285.0,STARLINK-4173,PAYLOAD,2023-12-29 19:35:50,15.08836774,0.0001304,53.2156,179.3804,85.0582,275.0559,4.1736e-05,3.76e-06,0.0,0 STARLINK-4173,1 53285U 22086AV  23363.81656213  .00000376  00000-0  41736-4 0  9991,2 53285  53.2156 179.3804 0001304  85.0582 275.0559 15.08836774 80128,6917.89,95.438,540.657,538.853,0.0
53285.0,STARLINK-4173,PAYLOAD,2023-12-30 11:29:42,15.08840667,0.0001376,53.2157,176.4068,78.9866,281.128,2.6869e-05,1.4e-06,0.0,0 STARLINK-4173,1 53285U 22086AV  23364.47896114  .00000140  00000-0  26869-4 0  9999,2 53285  53.2157 176.4068 0001376  78.9866 281.1280 15.08840667 80387,6917.878,95.438,540.695,538.791,0.0
53285.0,STARLINK-4173,PAYLOAD,2023-12-30 17:51:14,15.08842057,0.0001368,53.2156,175.2177,79.478,280.6367,4.1657e-05,3.75e-06,0.0,0 STARLINK-4173,1 53285U 22086AV  23364.74391932  .00000375  00000-0  41657-4 0  9999,2 53285  53.2156 175.2177 0001368  79.4780 280.6367 15.08842057 80426,6917.874,95.437,540.685,538.793,0.0
53285.0,STARLINK-4173,PAYLOAD,2023-12-31 11:20:29,15.08839667,0.0001353,53.2155,171.9466,80.9417,279.1728,5.027e-05,5.12e-06,0.0,0 STARLINK-4173,1 53285U 22086AV  23365.47255986  .00000512  00000-0  50270-4 0  9992,2 53285  53.2155 171.9466 0001353  80.9417 279.1728 15.08839667 80378,6917.881,95.438,540.682,538.81,0.0
53285.0,STARLINK-4173,PAYLOAD,2023-12-31 17:42:01,15.08839463,0.0001332,53.2155,170.757,82.2306,277.8838,4.4876e-05,4.26e-06,0.0,0 STARLINK-4173,1 53285U 22086AV  23365.73751989  .00000426  00000-0  44876-4 0  9994,2 53285  53.2155 170.7570 0001332  82.2306 277.8838 15.08839463 80573,6917.882,95.438,540.668,538.826,0.0
53285.0,STARLINK-4173,PAYLOAD,2024-01-01 14:22:02,15.08840844,0.0001311,53.2157,166.8913,86.4189,273.6953,2.1914e-05,6.1e-07,0.0,0 STARLINK-4173,1 53285U 22086AV  24001.59863896  .00000061  00000-0  21914-4 0  9990,2 53285  53.2157 166.8913 0001311  86.4189 273.6953 15.08840844 80706,6917.878,95.438,540.65,538.836,0.0
53285.0,STARLINK-4173,PAYLOAD,2024-01-01 17:32:48,15.08841447,0.0001327,53.2162,166.2966,93.9246,266.1898,2.3572e-05,8.7e-07,0.0,0 STARLINK-4173,1 53285U 22086AV  24001.73111808  .00000087  00000-0  23572-4 0  9995,2 53285  53.2162 166.2966 0001327  93.9246 266.1898 15.08841447 80567,6917.876,95.437,540.659,538.823,0.0
53285.0,STARLINK-4173,PAYLOAD,2024-01-01 20:43:34,15.08843243,0.0001265,53.2157,165.7011,92.3941,267.7196,3.4527e-05,2.62e-06,0.0,0 STARLINK-4173,1 53285U 22086AV  24001.86359627  .00000262  00000-0  34527-4 0  9999,2 53285  53.2157 165.7011 0001265  92.3941 267.7196 15.08843243 80746,6917.87,95.437,540.611,538.86,0.0
53285.0,STARLINK-4173,PAYLOAD,2024-01-02 14:12:49,15.08839231,0.0001299,53.2162,162.4284,89.6489,270.4652,1.9224e-06,-2.57e-06,0.0,0 STARLINK-4173,1 53285U 22086AV  24002.59224051 -.00000257  00000-0  19224-5 0  9995,2 53285  53.2162 162.4284 0001299  89.6489 270.4652 15.08839231 80853,6917.883,95.438,540.646,538.849,0.0
53285.0,STARLINK-4173,PAYLOAD,2024-01-02 17:23:35,15.08840578,0.0001293,53.2162,161.8335,87.9879,272.1261,1.1224e-05,-1.09e-06,0.0,0 STARLINK-4173,1 53285U 22086AV  24002.72471936 -.00000109  00000-0  11224-4 0  9993,2 53285  53.2162 161.8335 0001293  87.9879 272.1261 15.08840578 80874,6917.879,95.438,540.638,538.849,0.0
